[{"OBJECT_NAME":"STARLINK-32450","OBJECT_ID":"2024-210L","EPOCH":"2026-03-08T14:04:59.288448","MEAN_MOTION":15.27587636,"ECCENTRICITY":0.00022291,"INCLINATION":42.9994,"RA_OF_ASC_NODE":178.9286,"ARG_OF_PERICENTER":261.1082,"MEAN_ANOMALY":98.9517,"EPHEMERIS_TYPE":0,"CLASSIFICATION_TYPE":"U","NORAD_CAT_ID":61969,"ELEMENT_SET_NO":999,"REV_AT_EPOCH":7469,"BSTAR":0.0012966884,"MEAN_MOTION_DOT":0.00035602,"MEAN_MOTION_DDOT":0},{"OBJECT_NAME":"DELTA 2 DEB","OBJECT_ID":"1992-058E","EPOCH":"2026-03-02T12:34:16.724352","MEAN_MOTION":8.27383935,"ECCENTRICITY":0.3592253,"INCLINATION":34.8441,"RA_OF_ASC_NODE":211.6119,"ARG_OF_PERICENTER":231.3545,"MEAN_ANOMALY":90.7318,"EPHEMERIS_TYPE":0,"CLASSIFICATION_TYPE":"U","NORAD_CAT_ID":26851,"ELEMENT_SET_NO":999,"REV_AT_EPOCH":65361,"BSTAR":0.00059959,"MEAN_MOTION_DOT":0.00023278,"MEAN_MOTION_DDOT":0}]
